ONEWEB-0158             
1 48054U 21025N   25061.89452217  .00000209  00000+0  53684-3 0  9992
2 48054  87.8893  53.8859 0001708  89.0439 271.0885 13.13571831191761
ONEWEB-0157             
1 48055U 21025P   25061.91872477 -.00000341  00000+0 -96855-3 0  9996
2 48055  87.8895  53.8927 0001777  71.9385 288.1937 13.13416079191709
ONEWEB-0162             
1 48056U 21025Q   25062.49170245  .00000350  00000+0  92326-3 0  9992
2 48056  87.8892  53.7707 0001802  86.6933 273.4402 13.13405678191733
ONEWEB-0155             
1 48057U 21025R   25061.97873927  .00000128  00000+0  31437-3 0  9991
2 48057  87.8894  53.8875 0002018  82.6328 277.5031 13.13522803191831
ONEWEB-0149             
1 48058U 21025S   25062.45683420 -.00000487  00000+0 -13690-2 0  9993
2 48058  87.8896  53.7869 0001590  89.9069 270.2242 13.13383867191707
ONEWEB-0148             
1 48059U 21025T   25062.04038572  .00000478  00000+0  12719-2 0  9990
2 48059  87.8896  53.8899 0001143  80.8404 279.2855 13.13617125191761
ONEWEB-0160             
1 48060U 21025U   25061.90419078 -.00000023  00000+0 -98728-4 0  9994
2 48060  87.8898  53.9133 0002360 105.9830 254.1559 13.13510551191691
ONEWEB-0163             
1 48061U 21025V   25062.04200707  .00000404  00000+0  10692-2 0  9991
2 48061  87.8895  53.8709 0001804  77.5994 282.5337 13.13604725191847
